ONEWEB-0538             
1 56047U 23043B   23299.25001157 -.01109650  00000+0 -85851+0 0  9999
2 56047  87.4829  61.8945 0001327 296.4848 216.9490 13.96423771 32749
ONEWEB-0546             
1 56048U 23043C   23298.58334491 -.01193179  00000+0 -91144+0 0  9996
2 56048  87.4798  62.0238 0002711 113.4226 265.3414 13.96833150  5671
ONEWEB-0547             
1 56049U 23043D   23299.42221500  .00000341  00000+0  79461-3 0  9994
2 56049  87.9217  76.0421 0001403  89.1147 271.0148 13.21825160 31688
ONEWEB-0548             
1 56050U 23043E   23298.58334491 -.01211691  00000+0 -91282+0 0  9992
2 56050  87.4689  62.0871 0003728  84.8077 194.1145 13.97672931  5635
ONEWEB-0549             
1 56051U 23043F   23298.88443371 -.00000124  00000+0 -33156-3 0  9990
2 56051  87.9211  76.1509 0001629  91.0430 269.0891 13.21828351 30709
ONEWEB-0550             
1 56052U 23043G   23298.41766261  .00000122  00000+0  26293-3 0  9996
2 56052  87.9217  76.2554 0001885  91.8023 268.3327 13.21827978 30640
ONEWEB-0551             
1 56053U 23043H   23299.14052809  .00009774  00000+0  25872-1 0  9996
2 56053  87.8960  91.3569 0001419  85.8821 274.2471 13.15627556 30426
ONEWEB-0552             
1 56054U 23043J   23298.94123292 -.00000193  00000+0 -49903-3 0  9990
2 56054  87.9219  76.1616 0002019  82.9808 277.1555 13.21828886 30712
